[{"OBJECT_NAME":"STARLINK-30920","OBJECT_ID":"2023-178E","EPOCH":"2026-03-09T23:34:38.009568","MEAN_MOTION":15.30188638,"ECCENTRICITY":0.0001158,"INCLINATION":53.1614,"RA_OF_ASC_NODE":347.1445,"ARG_OF_PERICENTER":64.2129,"MEAN_ANOMALY":295.8992,"EPHEMERIS_TYPE":0,"CLASSIFICATION_TYPE":"U","NORAD_CAT_ID":58378,"ELEMENT_SET_NO":999,"REV_AT_EPOCH":13011,"BSTAR":7.2183908e-5,"MEAN_MOTION_DOT":1.779e-5,"MEAN_MOTION_DDOT":0},{"OBJECT_NAME":"DMSP 5D-2 F14 DEB","OBJECT_ID":"1997-012G","EPOCH":"2026-03-09T18:05:19.087296","MEAN_MOTION":15.2878374,"ECCENTRICITY":0.00491251,"INCLINATION":99.2047,"RA_OF_ASC_NODE":151.8456,"ARG_OF_PERICENTER":247.1908,"MEAN_ANOMALY":112.4133,"EPHEMERIS_TYPE":0,"CLASSIFICATION_TYPE":"U","NORAD_CAT_ID":62936,"ELEMENT_SET_NO":999,"REV_AT_EPOCH":6425,"BSTAR":0.05046686,"MEAN_MOTION_DOT":0.01624988,"MEAN_MOTION_DDOT":0}]
